{"type": "FeatureCollection", "features": [ {"type": "Feature", "properties": {"norad_id": 66052, "name": "HRC MONOBLOCK CAMERA", "group": "stations", "lat": 50.537079779562035, "lon": -148.36536051252727, "alt_km": 398.151722566372, "timestamp": "2025-12-13T13:34:33.887403+00:00", "meta": {"OBJECT_NAME": "HRC MONOBLOCK CAMERA", "OBJECT_ID": "1998-067XR", "EPOCH": "2025-12-12T23:20:39.577920", "MEAN_MOTION": 15.54154982, "ECCENTRICITY": 0.00033119, "INCLINATION": 51.6292, "RA_OF_ASC_NODE": 140.346, "ARG_OF_PERICENTER": 185.3719, "MEAN_ANOMALY": 174.7237, "EPHEMERIS_TYPE": 0, "CLASSIFICATION_TYPE": "U", "NORAD_CAT_ID": 66052, "ELEMENT_SET_NO": 999, "REV_AT_EPOCH": 887, "BSTAR": 0.00076587258, "MEAN_MOTION_DOT": 0.00050598, "MEAN_MOTION_DDOT": 0}, "tle": {"line1": "1 66052U 98067XR  25346.97268030  .00050598  00000+0  76587-3 0  9996", "line2": "2 66052  51.6292 140.3460 0003311 185.3719 174.7237 15.54154982  8874"}}, "geometry": {"type": "Point", "coordinates": [-148.36536051252727, 50.537079779562035]}}, {"type": "Feature", "properties": {"norad_id": 66174, "name": "HTV-X1", "group": "stations", "lat": -30.728428227639686, "lon": 110.29136746433637, "alt_km": 421.1707998976608, "timestamp": "2025-12-13T13:34:33.887412+00:00", "meta": {"OBJECT_NAME": "HTV-X1", "OBJECT_ID": "2025-241A", "EPOCH": "2025-12-12T20:43:30.984384", "MEAN_MOTION": 15.49550036, "ECCENTRICITY": 0.00032451, "INCLINATION": 51.6304, "RA_OF_ASC_NODE": 141.8664, "ARG_OF_PERICENTER": 240.6311, "MEAN_ANOMALY": 119.4354, "EPHEMERIS_TYPE": 0, "CLASSIFICATION_TYPE": "U", "NORAD_CAT_ID": 66174, "ELEMENT_SET_NO": 999, "REV_AT_EPOCH": 51, "BSTAR": 0.00025741225, "MEAN_MOTION_DOT": 0.00014033, "MEAN_MOTION_DDOT": 0}, "tle": {"line1": "1 66174U 25241A   25346.86355306  .00014033  00000+0  25741-3 0  9996", "line2": "2 66174  51.6304 141.8664 0003245 240.6311 119.4354 15.49550036   517"}}, "geometry": {"type": "Point", "coordinates": [110.29136746433637, -30.728428227639686]}}, {"type": "Feature", "properties": {"norad_id": 66515, "name": "SZ-21 MODULE", "group": "stations", "lat": 13.889015363309202, "lon": 27.261024836504046, "alt_km": 379.75075623886005, "timestamp": "2025-12-13T13:34:33.887422+00:00", "meta": {"OBJECT_NAME": "SZ-21 MODULE", "OBJECT_ID": "2025-246C", "EPOCH": "2025-12-12T19:04:39.587232", "MEAN_MOTION": 15.62483203, "ECCENTRICITY": 0.00063063, "INCLINATION": 41.4775, "RA_OF_ASC_NODE": 15.7097, "ARG_OF_PERICENTER": 260.6775, "MEAN_ANOMALY": 99.3351, "EPHEMERIS_TYPE": 0, "CLASSIFICATION_TYPE": "U", "NORAD_CAT_ID": 66515, "ELEMENT_SET_NO": 999, "REV_AT_EPOCH": 445, "BSTAR": 0.00036064759, "MEAN_MOTION_DOT": 0.00032837, "MEAN_MOTION_DDOT": 0}, "tle": {"line1": "1 66515U 25246C   25346.79490263  .00032837  00000+0  36065-3 0  9997", "line2": "2 66515  41.4775  15.7097 0006306 260.6775  99.3351 15.62483203  4457"}}, "geometry": {"type": "Point", "coordinates": [27.261024836504046, 13.889015363309202]}}, {"type": "Feature", "properties": {"norad_id": 66645, "name": "SHENZHOU-22", "group": "stations", "lat": 40.13039559896351, "lon": 119.02926970003602, "alt_km": 381.13117438079735, "timestamp": "2025-12-13T13:34:33.887431+00:00", "meta": {"OBJECT_NAME": "SHENZHOU-22", "OBJECT_ID": "2025-272A", "EPOCH": "2025-12-12T23:18:04.584096", "MEAN_MOTION": 15.5917806, "ECCENTRICITY": 0.00082454, "INCLINATION": 41.4684, "RA_OF_ASC_NODE": 15.3046, "ARG_OF_PERICENTER": 32.5257, "MEAN_ANOMALY": 327.6088, "EPHEMERIS_TYPE": 0, "CLASSIFICATION_TYPE": "U", "NORAD_CAT_ID": 66645, "ELEMENT_SET_NO": 999, "REV_AT_EPOCH": 26357, "BSTAR": 0.00033032775, "MEAN_MOTION_DOT": 0.00026417, "MEAN_MOTION_DDOT": 0}, "tle": {"line1": "1 66645U 25272A   25346.97088639  .00026417  00000+0  33033-3 0  9999", "line2": "2 66645  41.4684  15.3046 0008245  32.5257 327.6088 15.59178060263577"}}, "geometry": {"type": "Point", "coordinates": [119.02926970003602, 40.13039559896351]}}, {"type": "Feature", "properties": {"norad_id": 66664, "name": "SOYUZ-MS 28", "group": "stations", "lat": -30.728426977991273, "lon": 110.29136898165997, "alt_km": 421.1707998868824, "timestamp": "2025-12-13T13:34:33.887440+00:00", "meta": {"OBJECT_NAME": "SOYUZ-MS 28", "OBJECT_ID": "2025-275A", "EPOCH": "2025-12-12T20:43:30.984384", "MEAN_MOTION": 15.49550036, "ECCENTRICITY": 0.00032451, "INCLINATION": 51.6304, "RA_OF_ASC_NODE": 141.8664, "ARG_OF_PERICENTER": 240.6311, "MEAN_ANOMALY": 119.4354, "EPHEMERIS_TYPE": 0, "CLASSIFICATION_TYPE": "U", "NORAD_CAT_ID": 66664, "ELEMENT_SET_NO": 999, "REV_AT_EPOCH": 128, "BSTAR": 0.00025741225, "MEAN_MOTION_DOT": 0.00014033, "MEAN_MOTION_DDOT": 0}, "tle": {"line1": "1 66664U 25275A   25346.86355306  .00014033  00000+0  25741-3 0  9997", "line2": "2 66664  51.6304 141.8664 0003245 240.6311 119.4354 15.49550036  1286"}}, "geometry": {"type": "Point", "coordinates": [110.29136898165997, -30.728426977991273]}}, {"type": "Feature", "properties": {"norad_id": 66906, "name": "1998-067XS", "group": "stations", "lat": -6.357528007149342, "lon": 133.25567078340282, "alt_km": 418.4671006061435, "timestamp": "2025-12-13T13:34:33.887451+00:00", "meta": {"OBJECT_NAME": "1998-067XS", "OBJECT_ID": "1998-067XS", "EPOCH": "2025-12-12T17:30:10.785600", "MEAN_MOTION": 15.50562979, "ECCENTRICITY": 0.00036025, "INCLINATION": 51.6293, "RA_OF_ASC_NODE": 142.4703, "ARG_OF_PERICENTER": 202.1444, "MEAN_ANOMALY": 157.939, "EPHEMERIS_TYPE": 0, "CLASSIFICATION_TYPE": "U", "NORAD_CAT_ID": 66906, "ELEMENT_SET_NO": 999, "REV_AT_EPOCH": 161, "BSTAR": 0.00063717141, "MEAN_MOTION_DOT": 0.00036816, "MEAN_MOTION_DDOT": 0}, "tle": {"line1": "1 66906U 98067XS  25346.72929150  .00036816  00000+0  63717-3 0  9992", "line2": "2 66906  51.6293 142.4703 0003602 202.1444 157.9390 15.50562979  1615"}}, "geometry": {"type": "Point", "coordinates": [133.25567078340282, -6.357528007149342]}}, {"type": "Feature", "properties": {"norad_id": 66907, "name": "1998-067XT", "group": "stations", "lat": 7.6747043267518675, "lon": 144.41277158991596, "alt_km": 414.1155830166572, "timestamp": "2025-12-13T13:34:33.887460+00:00", "meta": {"OBJECT_NAME": "1998-067XT", "OBJECT_ID": "1998-067XT", "EPOCH": "2025-12-12T17:26:16.026432", "MEAN_MOTION": 15.5143678, "ECCENTRICITY": 0.00044769, "INCLINATION": 51.6298, "RA_OF_ASC_NODE": 142.4529, "ARG_OF_PERICENTER": 226.787, "MEAN_ANOMALY": 133.2746, "EPHEMERIS_TYPE": 0, "CLASSIFICATION_TYPE": "U", "NORAD_CAT_ID": 66907, "ELEMENT_SET_NO": 999, "REV_AT_EPOCH": 161, "BSTAR": 0.0013978666, "MEAN_MOTION_DOT": 0.0008442, "MEAN_MOTION_DDOT": 0}, "tle": {"line1": "1 66907U 98067XT  25346.72657438  .00084420  00000+0  13979-2 0  9998", "line2": "2 66907  51.6298 142.4529 0004476 226.7870 133.2746 15.51436780  1615"}}, "geometry": {"type": "Point", "coordinates": [144.41277158991596, 7.6747043267518675]}}, {"type": "Feature", "properties": {"norad_id": 66908, "name": "1998-067XU", "group": "stations", "lat": 9.320098578486856, "lon": 145.75055472027165, "alt_km": 413.748753497317, "timestamp": "2025-12-13T13:34:33.887469+00:00", "meta": {"OBJECT_NAME": "1998-067XU", "OBJECT_ID": "1998-067XU", "EPOCH": "2025-12-12T22:04:02.533728", "MEAN_MOTION": 15.51556229, "ECCENTRICITY": 0.0004575, "INCLINATION": 51.6297, "RA_OF_ASC_NODE": 141.4904, "ARG_OF_PERICENTER": 226.416, "MEAN_ANOMALY": 133.645, "EPHEMERIS_TYPE": 0, "CLASSIFICATION_TYPE": "U", "NORAD_CAT_ID": 66908, "ELEMENT_SET_NO": 999, "REV_AT_EPOCH": 164, "BSTAR": 0.0015461789, "MEAN_MOTION_DOT": 0.00093943, "MEAN_MOTION_DDOT": 0}, "tle": {"line1": "1 66908U 98067XU  25346.91947377  .00093943  00000+0  15462-2 0  9993", "line2": "2 66908  51.6297 141.4904 0004575 226.4160 133.6450 15.51556229  1640"}}, "geometry": {"type": "Point", "coordinates": [145.75055472027165, 9.320098578486856]}}, {"type": "Feature", "properties": {"norad_id": 66909, "name": "SILVERSAT", "group": "stations", "lat": 11.157665960449476, "lon": 147.2648259781819, "alt_km": 413.1015330221999, "timestamp": "2025-12-13T13:34:33.887478+00:00", "meta": {"OBJECT_NAME": "SILVERSAT", "OBJECT_ID": "1998-067XV", "EPOCH": "2025-12-12T22:03:29.727648", "MEAN_MOTION": 15.51661311, "ECCENTRICITY": 0.00044499, "INCLINATION": 51.6297, "RA_OF_ASC_NODE": 141.4878, "ARG_OF_PERICENTER": 228.6613, "MEAN_ANOMALY": 131.3994, "EPHEMERIS_TYPE": 0, "CLASSIFICATION_TYPE": "U", "NORAD_CAT_ID": 66909, "ELEMENT_SET_NO": 999, "REV_AT_EPOCH": 164, "BSTAR": 0.0015570359, "MEAN_MOTION_DOT": 0.00094974, "MEAN_MOTION_DDOT": 0}, "tle": {"line1": "1 66909U 98067XV  25346.91909407  .00094974  00000+0  15570-2 0  9991", "line2": "2 66909  51.6297 141.4878 0004449 228.6613 131.3994 15.51661311  1645"}}, "geometry": {"type": "Point", "coordinates": [147.2648259781819, 11.157665960449476]}}, {"type": "Feature", "properties": {"norad_id": 66910, "name": "1998-067XW", "group": "stations", "lat": 17.800813719735483, "lon": 152.9941891265118, "alt_km": 412.88223512829154, "timestamp": "2025-12-13T13:34:33.887487+00:00", "meta": {"OBJECT_NAME": "1998-067XW", "OBJECT_ID": "1998-067XW", "EPOCH": "2025-12-12T20:28:35.609952", "MEAN_MOTION": 15.51770354, "ECCENTRICITY": 0.00052525, "INCLINATION": 51.6298, "RA_OF_ASC_NODE": 141.7982, "ARG_OF_PERICENTER": 209.4111, "MEAN_ANOMALY": 150.6584, "EPHEMERIS_TYPE": 0, "CLASSIFICATION_TYPE": "U", "NORAD_CAT_ID": 66910, "ELEMENT_SET_NO": 999, "REV_AT_EPOCH": 163, "BSTAR": 0.001333891, "MEAN_MOTION_DOT": 0.00081487, "MEAN_MOTION_DDOT": 0}, "tle": {"line1": "1 66910U 98067XW  25346.85318993  .00081487  00000+0  13339-2 0  9996", "line2": "2 66910  51.6298 141.7982 0005252 209.4111 150.6584 15.51770354  1636"}}, "geometry": {"type": "Point", "coordinates": [152.9941891265118, 17.800813719735483]}}]}